{"results":1,"data":[{"wind":{"degrees":350,"speed_kts":10,"speed_mph":12,"speed_mps":5},"temperature":{"celsius":7,"fahrenheit":45},"dewpoint":{"celsius":1,"fahrenheit":34},"humidity":{"percent":66},"barometer":{"hg":30.24,"hpa":1024,"kpa":102.39,"mb":1023.92},"visibility":{"miles":"Greater than 6","miles_float":6.21,"meters":"10,000+","meters_float":10000},"ceiling":{"code":"BKN","text":"Broken","feet_agl":3000,"meters_agl":914.4},"elevation":{"feet":121.39,"meters":37},"location":{"coordinates":[28.8146,40.976898],"type":"Point"},"icao":"LTBA","observed":"2020-01-19T14:50:00.000Z","raw_text":"LTBA 191450Z 35010KT 9999 BKN030 07/01 Q1024 NOSIG RMK RWY17L 36008KT RWY05 02008KT 350V050 RWY23 02010KT 340V060","station":{"name":"Atatürk International"},"clouds":[{"code":"BKN","text":"Broken","base_feet_agl":3000,"base_meters_agl":914.4}],"flight_category":"MVFR","conditions":[]}]}